{
  "type": "FeatureCollection",
  "features": [
    {
      "type": "Feature",
      "properties": {
        "norad_id": 28051,
        "name": "IRS-P6 (RESOURCESAT-1)",
        "group": "resource",
        "lat": 81.74455589344664,
        "lon": -60.78894959211074,
        "alt_km": 745.9164156296738,
        "timestamp": "2025-12-20T07:33:50.460033+00:00",
        "meta_object_name": "IRS-P6 (RESOURCESAT-1)",
        "meta_object_id": "2003-046A",
        "meta_epoch": "2025-12-19T23:19:51.081600",
        "meta_mean_motion": 14.36077285,
        "meta_eccentricity": 0.00646134,
        "meta_inclination": 98.2172,
        "meta_ra_of_asc_node": 34.0443,
        "meta_arg_of_pericenter": 159.0346,
        "meta_mean_anomaly": 319.8961,
        "meta_ephemeris_type": 0,
        "meta_classification_type": "U",
        "meta_norad_cat_id": 28051,
        "meta_element_set_no": 999,
        "meta_rev_at_epoch": 15480,
        "meta_bstar": 1.0804751e-05,
        "meta_mean_motion_dot": -9e-08,
        "meta_mean_motion_ddot": 0,
        "tle_line1": "1 28051U 03046A   25353.97211900 -.00000009  00000+0  10805-4 0  9993",
        "tle_line2": "2 28051  98.2172  34.0443 0064613 159.0346 319.8961 14.36077285154801"
      },
      "geometry": {
        "type": "Point",
        "coordinates": [
          -60.78894959211074,
          81.74455589344664
        ]
      }
    },
    {
      "type": "Feature",
      "properties": {
        "norad_id": 28220,
        "name": "SHIYAN-1 (SY-1)",
        "group": "resource",
        "lat": -44.74334166389485,
        "lon": 64.20478127910383,
        "alt_km": 484.15949206474215,
        "timestamp": "2025-12-20T07:33:50.460044+00:00",
        "meta_object_name": "SHIYAN-1 (SY-1)",
        "meta_object_id": "2004-012A",
        "meta_epoch": "2025-12-19T03:28:38.259264",
        "meta_mean_motion": 15.28303655,
        "meta_eccentricity": 0.0005285,
        "meta_inclination": 97.8932,
        "meta_ra_of_asc_node": 55.062,
        "meta_arg_of_pericenter": 299.4151,
        "meta_mean_anomaly": 60.656,
        "meta_ephemeris_type": 0,
        "meta_classification_type": "U",
        "meta_norad_cat_id": 28220,
        "meta_element_set_no": 999,
        "meta_rev_at_epoch": 18354,
        "meta_bstar": 0.00036633035,
        "meta_mean_motion_dot": 0.00010025,
        "meta_mean_motion_ddot": 0,
        "tle_line1": "1 28220U 04012A   25353.14488726  .00010025  00000+0  36633-3 0  9990",
        "tle_line2": "2 28220  97.8932  55.0620 0005285 299.4151  60.6560 15.28303655183545"
      },
      "geometry": {
        "type": "Point",
        "coordinates": [
          64.20478127910383,
          -44.74334166389485
        ]
      }
    },
    {
      "type": "Feature",
      "properties": {
        "norad_id": 28376,
        "name": "AURA",
        "group": "resource",
        "lat": -43.609099292008366,
        "lon": -47.4102663743998,
        "alt_km": 697.4175778449344,
        "timestamp": "2025-12-20T07:33:50.460056+00:00",
        "meta_object_name": "AURA",
        "meta_object_id": "2004-026A",
        "meta_epoch": "2025-12-19T20:15:35.514720",
        "meta_mean_motion": 14.60961765,
        "meta_eccentricity": 0.00013573,
        "meta_inclination": 98.3194,
        "meta_ra_of_asc_node": 304.104,
        "meta_arg_of_pericenter": 92.9045,
        "meta_mean_anomaly": 267.231,
        "meta_ephemeris_type": 0,
        "meta_classification_type": "U",
        "meta_norad_cat_id": 28376,
        "meta_element_set_no": 999,
        "meta_rev_at_epoch": 14002,
        "meta_bstar": 0.00015578543,
        "meta_mean_motion_dot": 7.15e-06,
        "meta_mean_motion_ddot": 0,
        "tle_line1": "1 28376U 04026A   25353.84416105  .00000715  00000+0  15579-3 0  9997",
        "tle_line2": "2 28376  98.3194 304.1040 0001357  92.9045 267.2310 14.60961765140022"
      },
      "geometry": {
        "type": "Point",
        "coordinates": [
          -47.4102663743998,
          -43.609099292008366
        ]
      }
    },
    {
      "type": "Feature",
      "properties": {
        "norad_id": 28649,
        "name": "IRS-P5 (CARTOSAT-1)",
        "group": "resource",
        "lat": -69.40963010272719,
        "lon": 179.72331445960606,
        "alt_km": 604.4245630146024,
        "timestamp": "2025-12-20T07:33:50.460067+00:00",
        "meta_object_name": "IRS-P5 (CARTOSAT-1)",
        "meta_object_id": "2005-017A",
        "meta_epoch": "2025-12-19T12:43:05.760192",
        "meta_mean_motion": 14.90426279,
        "meta_eccentricity": 8.32e-05,
        "meta_inclination": 97.5486,
        "meta_ra_of_asc_node": 19.6421,
        "meta_arg_of_pericenter": 50.2507,
        "meta_mean_anomaly": 309.8785,
        "meta_ephemeris_type": 0,
        "meta_classification_type": "U",
        "meta_norad_cat_id": 28649,
        "meta_element_set_no": 999,
        "meta_rev_at_epoch": 11705,
        "meta_bstar": 0.00011213,
        "meta_mean_motion_dot": 1.04e-05,
        "meta_mean_motion_ddot": 0,
        "tle_line1": "1 28649U 05017A   25353.52992778  .00001040  00000+0  11213-3 0  9994",
        "tle_line2": "2 28649  97.5486  19.6421 0000832  50.2507 309.8785 14.90426279117053"
      },
      "geometry": {
        "type": "Point",
        "coordinates": [
          179.72331445960606,
          -69.40963010272719
        ]
      }
    },
    {
      "type": "Feature",
      "properties": {
        "norad_id": 28893,
        "name": "SINAH 1",
        "group": "resource",
        "lat": -63.21151353813647,
        "lon": -73.83076276592702,
        "alt_km": 694.6007333135694,
        "timestamp": "2025-12-20T07:33:50.460077+00:00",
        "meta_object_name": "SINAH 1",
        "meta_object_id": "2005-043D",
        "meta_epoch": "2025-12-19T22:15:02.420640",
        "meta_mean_motion": 14.6396954,
        "meta_eccentricity": 0.00156242,
        "meta_inclination": 98.2608,
        "meta_ra_of_asc_node": 122.5037,
        "meta_arg_of_pericenter": 115.9393,
        "meta_mean_anomaly": 244.3422,
        "meta_ephemeris_type": 0,
        "meta_classification_type": "U",
        "meta_norad_cat_id": 28893,
        "meta_element_set_no": 999,
        "meta_rev_at_epoch": 7429,
        "meta_bstar": 6.4732723e-05,
        "meta_mean_motion_dot": 2.9e-06,
        "meta_mean_motion_ddot": 0,
        "tle_line1": "1 28893U 05043D   25353.92711135  .00000290  00000+0  64733-4 0  9996",
        "tle_line2": "2 28893  98.2608 122.5037 0015624 115.9393 244.3422 14.63969540 74294"
      },
      "geometry": {
        "type": "Point",
        "coordinates": [
          -73.83076276592702,
          -63.21151353813647
        ]
      }
    },
    {
      "type": "Feature",
      "properties": {
        "norad_id": 29079,
        "name": "EROS B",
        "group": "resource",
        "lat": -65.027199718381,
        "lon": -84.82079224572675,
        "alt_km": 363.433058894474,
        "timestamp": "2025-12-20T07:33:50.460088+00:00",
        "meta_object_name": "EROS B",
        "meta_object_id": "2006-014A",
        "meta_epoch": "2025-12-19T21:20:39.223104",
        "meta_mean_motion": 15.70467526,
        "meta_eccentricity": 0.00035129,
        "meta_inclination": 97.3468,
        "meta_ra_of_asc_node": 110.8155,
        "meta_arg_of_pericenter": 311.1816,
        "meta_mean_anomaly": 48.9144,
        "meta_ephemeris_type": 0,
        "meta_classification_type": "U",
        "meta_norad_cat_id": 29079,
        "meta_element_set_no": 999,
        "meta_rev_at_epoch": 9192,
        "meta_bstar": 0.0010459882,
        "meta_mean_motion_dot": 0.00129628,
        "meta_mean_motion_ddot": 0,
        "tle_line1": "1 29079U 06014A   25353.88934286  .00129628  00000+0  10460-2 0  9994",
        "tle_line2": "2 29079  97.3468 110.8155 0003512 311.1816  48.9144 15.70467526 91923"
      },
      "geometry": {
        "type": "Point",
        "coordinates": [
          -84.82079224572675,
          -65.027199718381
        ]
      }
    },
    {
      "type": "Feature",
      "properties": {
        "norad_id": 29228,
        "name": "RESURS-DK 1",
        "group": "resource",
        "lat": 49.87680757425688,
        "lon": 107.96582480209878,
        "alt_km": 528.8597153290657,
        "timestamp": "2025-12-20T07:33:50.460099+00:00",
        "meta_object_name": "RESURS-DK 1",
        "meta_object_id": "2006-021A",
        "meta_epoch": "2025-12-19T17:02:08.743488",
        "meta_mean_motion": 15.12197286,
        "meta_eccentricity": 0.0006864,
        "meta_inclination": 69.9339,
        "meta_ra_of_asc_node": 83.8253,
        "meta_arg_of_pericenter": 253.3624,
        "meta_mean_anomaly": 106.6789,
        "meta_ephemeris_type": 0,
        "meta_classification_type": "U",
        "meta_norad_cat_id": 29228,
        "meta_element_set_no": 999,
        "meta_rev_at_epoch": 7543,
        "meta_bstar": 0.00011372674,
        "meta_mean_motion_dot": 1.861e-05,
        "meta_mean_motion_ddot": 0,
        "tle_line1": "1 29228U 06021A   25353.70982342  .00001861  00000+0  11373-3 0  9998",
        "tle_line2": "2 29228  69.9339  83.8253 0006864 253.3624 106.6789 15.12197286 75430"
      },
      "geometry": {
        "type": "Point",
        "coordinates": [
          107.96582480209878,
          49.87680757425688
        ]
      }
    }
  ]
}